     2.10           G: GLONASS NAV DATA                     RINEX VERSION / TYPE
teqc  2015Jun23                         20220227 01:25:41UTCPGM / RUN BY / DATE
Linux 2.4.21-27.ELsmp|Opteron|gcc -static|Linux x86_64|=+   COMMENT
  2022     2     3   -0.000000000000D+00                    CORR TO SYSTEM TIME
                                                            END OF HEADER
19 22  2  4  9 15  0.0-1.769354566932D-04-9.094947017729D-13 3.240000000000D+04
   -9.936670898438D+03 4.113483428955D-01 9.313225746155D-10 0.000000000000D+00
    1.354241308594D+04-2.604760169983D+00 0.000000000000D+00 3.000000000000D+00
    1.920189550781D+04 2.050479888916D+00-2.793967723846D-09 0.000000000000D+00
20 22  2  4  9 45  0.0-6.430782377720D-05-9.094947017729D-13 3.420000000000D+04
   -2.875480957031D+03 2.082118988037D-01 1.862645149231D-09 0.000000000000D+00
    2.402301367188D+04-1.105921745300D+00 2.793967723846D-09 2.000000000000D+00
    8.020817382812D+03 3.396560668945D+00-1.862645149231D-09 0.000000000000D+00
21 22  2  4  9 45  0.0-2.753613516688D-04-2.728484105319D-12 3.420000000000D+04
    6.466206054688D+03 3.002939224243D-01 1.862645149231D-09 0.000000000000D+00
    2.182971191406D+04 1.565052032471D+00 4.656612873077D-09 4.000000000000D+00
   -1.151999414062D+04 3.130752563477D+00 0.000000000000D+00 0.000000000000D+00
 7 22  2  4  9 45  0.0 3.132969141006D-05-0.000000000000D+00 3.420000000000D+04
    1.728831054688D+04-1.373762130737D+00 9.313225746155D-10 0.000000000000D+00
    1.465019091797D+04-8.324661254883D-01 4.656612873077D-09 5.000000000000D+00
   -1.162350146484D+04-3.086908340454D+00 0.000000000000D+00 0.000000000000D+00
 6 22  2  4  9 45  0.0-3.078393638134D-05-1.818989403546D-12 3.420000000000D+04
    1.876158203125D+03-2.732316017151D+00 1.862645149231D-09 0.000000000000D+00
    1.257008447266D+04-1.301426887512D+00 2.793967723846D-09-4.000000000000D+00
   -2.212146386719D+04-9.739818572998D-01 1.862645149231D-09 0.000000000000D+00
 9 22  2  4  9 45  0.0 3.767386078835D-05 1.818989403546D-12 3.420000000000D+04
   -1.101209375000D+04-1.689914703369D+00 1.862645149231D-09 0.000000000000D+00
    1.701646435547D+04 1.273925781250D+00 0.000000000000D+00-2.000000000000D+00
    1.545401660156D+04-2.615221977234D+00-1.862645149231D-09 0.000000000000D+00
10 22  2  4  9 45  0.0-7.952097803354D-05-0.000000000000D+00 3.564000000000D+04
    3.844304687500D+03-2.560665130615D+00 0.000000000000D+00 0.000000000000D+00
    1.065822900391D+04 1.801027297974D+00 9.313225746155D-10-7.000000000000D+00
    2.284434130859D+04-4.018659591675D-01-2.793967723846D-09 0.000000000000D+00
20 22  2  4 10 15  0.0-6.430968642235D-05-9.094947017729D-13 3.600000000000D+04
   -2.742747070312D+03-9.607505798340D-02 1.862645149231D-09 0.000000000000D+00
    2.129730517578D+04-1.893794059753D+00 1.862645149231D-09 2.000000000000D+00
    1.374475927734D+04 2.922059059143D+00-1.862645149231D-09 0.000000000000D+00
 6 22  2  4 10 15  0.0-3.078766167164D-05-1.818989403546D-12 3.600000000000D+04
   -3.328538085938D+03-3.005111694336D+00 1.862645149231D-09 0.000000000000D+00
    1.054173632812D+04-9.288902282715D-01 9.313225746155D-10-4.000000000000D+00
   -2.299755664062D+04 6.776809692383D-03 1.862645149231D-09 0.000000000000D+00
 7 22  2  4 10 15  0.0 3.132876008749D-05-0.000000000000D+00 3.600000000000D+04
    1.411508398438D+04-2.134442329407D+00 1.862645149231D-09 0.000000000000D+00
    1.310731005859D+04-8.397541046143D-01 3.725290298462D-09 5.000000000000D+00
   -1.665623779297D+04-2.468504905701D+00 9.313225746155D-10 0.000000000000D+00
 9 22  2  4 10 15  0.0 3.767665475607D-05 1.818989403546D-12 3.600000000000D+04
   -1.340619335938D+04-9.681091308594D-01 1.862645149231D-09 0.000000000000D+00
    1.911267431641D+04 1.011548042297D+00 0.000000000000D+00-2.000000000000D+00
    1.020856298828D+04-3.175205230713D+00-9.313225746155D-10 0.000000000000D+00
21 22  2  4 10 15  0.0-2.753660082817D-04-2.728484105319D-12 3.600000000000D+04
    7.108350585938D+03 3.715848922729D-01 2.793967723846D-09 0.000000000000D+00
    2.388032324219D+04 6.987981796265D-01 4.656612873077D-09 4.000000000000D+00
   -5.512427246094D+03 3.501004219055D+00-0.000000000000D+00 0.000000000000D+00
10 22  2  4 10 15  0.0-7.952190935612D-05-0.000000000000D+00 3.615000000000D+04
   -3.906245117188D+02-2.112133026123D+00 9.313225746155D-10 0.000000000000D+00
    1.411676416016D+04 2.002784729004D+00 9.313225746155D-10-7.000000000000D+00
    2.124693066406D+04-1.361287117004D+00-2.793967723846D-09 0.000000000000D+00
20 22  2  4 10 45  0.0-6.431061774492D-05-0.000000000000D+00 3.780000000000D+04
   -3.326052734375D+03-5.737447738647D-01 9.313225746155D-10 0.000000000000D+00
    1.733749121094D+04-2.462612152100D+00 0.000000000000D+00 2.000000000000D+00
    1.840442919922D+04 2.221805572510D+00-2.793967723846D-09 0.000000000000D+00
 6 22  2  4 10 45  0.0-3.079045563936D-05-1.818989403546D-12 3.780000000000D+04
   -8.766112304688D+03-2.985847473145D+00 1.862645149231D-09 0.000000000000D+00
    9.280289550781D+03-4.664583206177D-01 0.000000000000D+00-4.000000000000D+00
   -2.209764697266D+04 9.865770339966D-01 2.793967723846D-09 0.000000000000D+00
 9 22  2  4 10 45  0.0 3.767944872379D-05 1.818989403546D-12 3.780000000000D+04
   -1.452299609375D+04-2.887668609619D-01 1.862645149231D-09 0.000000000000D+00
    2.050876367188D+04 5.018444061279D-01-0.000000000000D+00-2.000000000000D+00
    4.171214355469D+03-3.489274978638D+00-0.000000000000D+00 0.000000000000D+00
10 22  2  4 10 45  0.0-7.951632142067D-05-0.000000000000D+00 3.780000000000D+04
   -3.670720703125D+03-1.516513824463D+00 1.862645149231D-09 0.000000000000D+00
    1.771240722656D+04 1.946205139160D+00 0.000000000000D+00-7.000000000000D+00
    1.800772509766D+04-2.214303016663D+00-1.862645149231D-09 0.000000000000D+00
21 22  2  4 10 45  0.0-2.753715962172D-04-2.728484105319D-12 3.780000000000D+04
    7.650107910156D+03 1.881170272827D-01 3.725290298462D-09 0.000000000000D+00
    2.432895361328D+04-1.947555541992D-01 3.725290298462D-09 4.000000000000D+00
    9.209243164062D+02 3.600796699524D+00-9.313225746155D-10 0.000000000000D+00
22 22  2  4 10 45  0.0-1.625102013350D-04-2.728484105319D-12 3.849000000000D+04
    1.231193408203D+04 8.010225296021D-01 2.793967723846D-09 0.000000000000D+00
    1.674398681641D+04 1.866386413574D+00 3.725290298462D-09-3.000000000000D+00
   -1.472469726562D+04 2.802680015564D+00 0.000000000000D+00 0.000000000000D+00
20 22  2  4 11 15  0.0-6.431248039007D-05-0.000000000000D+00 3.960000000000D+04
   -4.855189453125D+03-1.129118919373D+00 0.000000000000D+00 0.000000000000D+00
    1.260471093750D+04-2.744942665100D+00-9.313225746155D-10 2.000000000000D+00
    2.164031884766D+04 1.350419044495D+00-2.793967723846D-09 0.000000000000D+00
21 22  2  4 11 15  0.0-2.753762528300D-04-2.728484105319D-12 3.960000000000D+04
    7.643568847656D+03-2.305450439453D-01 3.725290298462D-09 0.000000000000D+00
    2.323439746094D+04-9.968786239624D-01 1.862645149231D-09 4.000000000000D+00
    7.283165527344D+03 3.422519683838D+00-1.862645149231D-09 0.000000000000D+00
 9 22  2  4 11 15  0.0 3.768224269152D-05 1.818989403546D-12 3.960000000000D+04
   -1.453147656250D+04 2.486486434937D-01 1.862645149231D-09 0.000000000000D+00
    2.080355957031D+04-1.996116638184D-01-9.313225746155D-10-2.000000000000D+00
   -2.189930664062D+03-3.532567977905D+00 0.000000000000D+00 0.000000000000D+00
10 22  2  4 11 15  0.0-7.951632142067D-05-0.000000000000D+00 3.960000000000D+04
   -5.826211914062D+03-8.811807632446D-01 1.862645149231D-09 0.000000000000D+00
    2.095462158203D+04 1.610365867615D+00-0.000000000000D+00-7.000000000000D+00
    1.337880566406D+04-2.895497322083D+00-1.862645149231D-09 0.000000000000D+00
22 22  2  4 11 15  0.0-1.625157892704D-04-2.728484105319D-12 3.960000000000D+04
    1.374138720703D+04 7.428731918335D-01 3.725290298462D-09 0.000000000000D+00
    1.937278662109D+04 1.042021751404D+00 3.725290298462D-09-3.000000000000D+00
   -9.173390136719D+03 3.325288772583D+00 0.000000000000D+00 0.000000000000D+00
 6 22  2  4 11 15  0.0-3.079418092966D-05-1.818989403546D-12 3.978000000000D+04
   -1.389638525391D+04-2.666124343872D+00 9.313225746155D-10 0.000000000000D+00
    8.852542480469D+03-2.043628692627D-02-9.313225746155D-10-4.000000000000D+00
   -1.949186669922D+04 1.889931678772D+00 2.793967723846D-09 0.000000000000D+00
 7 22  2  4 11 15  0.0 3.132876008749D-05-0.000000000000D+00 4.077000000000D+04
    4.413612792969D+03-3.090500831604D+00 2.793967723846D-09 0.000000000000D+00
    1.098885839844D+04-2.281837463379D-01 9.313225746155D-10 5.000000000000D+00
   -2.254868896484D+04-7.195014953613D-01 1.862645149231D-09 0.000000000000D+00
21 22  2  4 11 45  0.0-2.753818407655D-04-2.728484105319D-12 4.140000000000D+04
    6.716127929688D+03-8.214426040649D-01 2.793967723846D-09 0.000000000000D+00
    2.085707568359D+04-1.605306625366D+00 9.313225746155D-10 4.000000000000D+00
    1.308303271484D+04 2.979992866516D+00-1.862645149231D-09 0.000000000000D+00
 6 22  2  4 11 45  0.0-3.079790621996D-05-1.818989403546D-12 4.140000000000D+04
   -1.820533105469D+04-2.083036422729D+00-0.000000000000D+00 0.000000000000D+00
    9.135528808594D+03 3.076906204224D-01-1.862645149231D-09-4.000000000000D+00
   -1.538171191406D+04 2.647298812866D+00 1.862645149231D-09 0.000000000000D+00
 7 22  2  4 11 45  0.0 3.132782876492D-05-0.000000000000D+00 4.140000000000D+04
   -1.244917968750D+03-3.144764900208D+00 1.862645149231D-09 0.000000000000D+00
    1.098623046875D+04 2.277250289917D-01 0.000000000000D+00 5.000000000000D+00
   -2.295169873047D+04 2.744951248169D-01 2.793967723846D-09 0.000000000000D+00
 9 22  2  4 11 45  0.0 3.768503665924D-05 1.818989403546D-12 4.140000000000D+04
   -1.375686767578D+04 5.723962783813D-01 1.862645149231D-09 0.000000000000D+00
    1.972871728516D+04-1.002793312073D+00-9.313225746155D-10-2.000000000000D+00
   -8.380962890625D+03-3.301480293274D+00 9.313225746155D-10 0.000000000000D+00
